[{"OBJECT_NAME":"TRANSPORTER-10 OBJECT AW","OBJECT_ID":"2024-043AW","EPOCH":"2026-03-09T22:04:49.515456","MEAN_MOTION":15.70494371,"ECCENTRICITY":0.00039773,"INCLINATION":97.534,"RA_OF_ASC_NODE":220.1774,"ARG_OF_PERICENTER":196.6835,"MEAN_ANOMALY":163.4297,"EPHEMERIS_TYPE":0,"CLASSIFICATION_TYPE":"U","NORAD_CAT_ID":59142,"ELEMENT_SET_NO":999,"REV_AT_EPOCH":11287,"BSTAR":0.00092189633,"MEAN_MOTION_DOT":0.00114165,"MEAN_MOTION_DDOT":0},{"OBJECT_NAME":"STARLINK-11368 [DTC]","OBJECT_ID":"2024-187K","EPOCH":"2026-03-09T22:09:53.437824","MEAN_MOTION":15.6969822,"ECCENTRICITY":9.39e-5,"INCLINATION":53.1581,"RA_OF_ASC_NODE":295.3458,"ARG_OF_PERICENTER":97.7006,"MEAN_ANOMALY":262.4118,"EPHEMERIS_TYPE":0,"CLASSIFICATION_TYPE":"U","NORAD_CAT_ID":61583,"ELEMENT_SET_NO":999,"REV_AT_EPOCH":8073,"BSTAR":1.6556389e-5,"MEAN_MOTION_DOT":1.417e-5,"MEAN_MOTION_DDOT":0}]
